STAR ONE C3             
1 38991U 12062A   24085.82256132 -.00000245  00000+0  00000+0 0  9999
2 38991   0.0354  90.8272 0001754 282.1936  31.8402  1.00270558 41595
EUTELSAT 21B            
1 38992U 12062B   24085.84894604  .00000134  00000+0  00000+0 0  9990
2 38992   0.0693   0.3219 0002809 357.8029 152.8552  1.00270864 41718
ECHOSTAR 16             
1 39008U 12065A   24083.12557662 -.00000288  00000+0  00000+0 0  9992
2 39008   0.0268 166.7076 0001340  70.5929 287.5390  1.00282940 41444
CHINASAT 12 (ZX 12)     
1 39017U 12067A   24086.60268611 -.00000201  00000+0  00000+0 0  9998
2 39017   0.0156 142.1661 0003367 223.5969 123.2278  1.00272756 41369
EUTELSAT 70B            
1 39020U 12069A   24085.99819698 -.00000039  00000+0  00000+0 0  9991
2 39020   0.0651   1.6749 0001564 318.4865 293.6251  1.00272565 41355
YAMAL 402               
1 39022U 12070A   24085.98501721  .00000090  00000+0  00000+0 0  9995
2 39022   0.0258 120.5283 0004115 242.9825 229.9041  1.00272889 41242
SKYNET 5D               
1 39034U 12075A   24082.88667036  .00000092  00000+0  00000+0 0  9993
2 39034   0.0696 351.4875 0003625   4.2875 197.0437  1.00276402 40970
MEXSAT 3                
1 39035U 12075B   24086.61881302 -.00000019  00000+0  00000+0 0  9993
2 39035   0.0200 191.0983 0001948 173.2838 288.1236  1.00269972 41033
TDRS 11                 
1 39070U 13004A   24086.56482897  .00000086  00000+0  00000+0 0  9998
2 39070   2.7156   8.6703 0004958  30.7074 173.9965  1.00271242 38542
AMAZONAS 3              
1 39078U 13006A   24081.22132816 -.00000293  00000+0  00000+0 0  9990
2 39078   0.0401 234.4296 0001977 132.4814 190.9769  1.00270472 36701
AZERSPACE 1             
1 39079U 13006B   24085.76114472  .00000137  00000+0  00000+0 0  9998
2 39079   0.0208 170.9519 0002291 213.4171 119.3264  1.00271899 40653
SBIRS GEO-2 (USA 241)   
1 39120U 13011A   24085.82995824 -.00000251  00000+0  00000+0 0  9994
2 39120   2.8287  45.6125 0002263 313.1472  85.7777  1.00271603 40387
EUTELSAT 117 WEST A     
1 39122U 13012A   24086.61769719 -.00000006  00000+0  00000+0 0  9995
2 39122   0.0355  64.9365 0003014 308.5444 276.6229  1.00272788 40284
ANIK G1                 
1 39127U 13014A   24086.62486715 -.00000067  00000+0  00000+0 0  9992
2 39127   0.0182 122.8987 0002285 217.8758 321.4197  1.00271916 40106
CHINASAT 11 (ZX 11)     
1 39157U 13020A   24086.60895848 -.00000284  00000+0  00000+0 0  9992
2 39157   0.0463 268.5522 0003319  62.0444 171.0526  1.00268562 39752
EUTELSAT 7B             
1 39163U 13022A   24084.90809965  .00000049  00000+0  00000+0 0  9995
2 39163   0.0693  10.3177 0006172 352.8380 153.6090  1.00273981 39801
WGS F5 (USA 243)        
1 39168U 13024A   24082.89155948 -.00000291  00000+0  00000+0 0  9993
2 39168   0.0024 159.4281 0000568 177.7056 112.1595  1.00271886 38971
SES-6                   
1 39172U 13026A   24082.47549545 -.00000269  00000+0  00000+0 0  9999
2 39172   0.0509 301.6483 0002627  42.5567 326.9258  1.00273062 39535
IRNSS-1A                
1 39199U 13034A   24078.08035709  .00000077  00000+0  00000+0 0  9997
2 39199  33.8723  75.7848 0019031 190.8511 353.6257  1.00279621 39132
MUOS-2                  
1 39206U 13036A   24086.62808088  .00000074  00000+0  00000+0 0  9992
2 39206   3.4911  39.2935 0049646 183.1825  11.1897  1.00275017 39044
ALPHASAT                
1 39215U 13038A   24084.00340387  .00000133  00000+0  00000+0 0  9993
2 39215   2.8800   8.3113 0002000  24.3724 175.3625  1.00272334 35841
INSAT-3D                
1 39216U 13038B   24085.89612413 -.00000152  00000+0  00000+0 0  9996
2 39216   0.0436  87.9912 0002012 225.9819 274.5313  1.00271545 38925
WGS F6 (USA 244)        
1 39222U 13041A   24085.59577726  .00000092  00000+0  00000+0 0  9993
2 39222   0.0159 195.9874 0000432 118.0359 308.7906  1.00274994 37890
ES'HAIL 1               
1 39233U 13044A   24085.85276057  .00000147  00000+0  00000+0 0  9991
2 39233   0.0658  13.3103 0002568   4.5640 138.3716  1.00274214 38744
GSAT-7                  
1 39234U 13044B   24082.98832861 -.00000084  00000+0  00000+0 0  9995
2 39234   0.0463  91.5641 0008081 197.1106 322.0640  1.00272679 37140
AMOS-4                  
1 39237U 13045A   24085.99379954  .00000012  00000+0  00000+0 0  9992
2 39237   0.0363 250.5579 0003510 106.6522 249.4658  1.00272053 38809
AEHF-3 (USA 246)        
1 39256U 13050A   24086.58217192  .00000142  00000+0  00000+0 0  9994
2 39256   3.2748  73.2403 0048807 183.4815 342.4267  1.00278054 37529
ASTRA 2E                
1 39285U 13056A   24085.84318567  .00000154  00000+0  00000+0 0  9991
2 39285   0.0618 348.8102 0003018  14.4371 152.5288  1.00271854 38282
FM-6                    
1 39360U 13058A   24083.59942309 -.00000021  00000+0  00000+0 0  9998
2 39360   0.0241 145.1148 0000555   9.0530 127.0317  1.00272650 37886
RADUGA-1M 3             
1 39375U 13062A   24085.96822553  .00000162  00000+0  00000+0 0  9995
2 39375   3.8809  82.2973 0001842 164.9110 320.2643  1.00273020 37954
SES-8                   
1 39460U 13071A   24084.88586419 -.00000269  00000+0  00000+0 0  9997
2 39460   0.0160 201.0635 0001983 184.6755 211.0046  1.00273126 36268
INMARSAT 5-F1           
1 39476U 13073A   24082.86091147  .00000021  00000+0  00000+0 0  9996
2 39476   0.0202 159.4086 0000158 274.9813 118.9513  1.00272284 37404
TKSAT-1 (TUPAC KATARI)  
1 39481U 13075A   24085.17424133 -.00000192  00000+0  00000+0 0  9996
2 39481   0.0492  53.5102 0003202 294.0974 170.9986  1.00270248 37431
EXPRESS-AM5             
1 39487U 13077A   24085.80208565 -.00000276  00000+0  00000+0 0  9996
2 39487   0.0213 219.2835 0000991  75.6395 317.5796  1.00273086 38201
GSAT-14                 
1 39498U 14001A   24086.00148641 -.00000073  00000+0  00000+0 0  9992
2 39498   0.0215 218.8629 0003845  84.0588 315.5433  1.00271192 37234
THAICOM 6               
1 39500U 14002A   24086.59898084 -.00000115  00000+0  00000+0 0  9991
2 39500   0.0296 145.8359 0001858 270.5226  62.2718  1.00274296 37374
TDRS 12                 
1 39504U 14004A   24085.75772716 -.00000265  00000+0  00000+0 0  9993
2 39504   3.5525   1.3689 0002226 229.3391 184.5605  1.00279834 36126
ABS-2                   
1 39508U 14006A   24086.00148684 -.00000082  00000+0  00000+0 0  9996
2 39508   0.0251  97.6024 0002552 264.8494 256.9249  1.00272373 37129
ATHENA-FIDUS            
1 39509U 14006B   24085.86214187  .00000158  00000+0  00000+0 0  9995
2 39509   0.0089 165.7408 0001464 211.8556 154.3517  1.00273694 37344
TURKSAT 4A              
1 39522U 14007A   24085.75785237  .00000150  00000+0  00000+0 0  9990
2 39522   0.0366 251.5455 0003178  70.8673 176.0988  1.00273960 36821
EXPRESS-AT1             
1 39612U 14010A   24083.78298765  .00000075  00000+0  00000+0 0  9996
2 39612   0.0257 187.8945 0000303 222.9767 108.7588  1.00271524 36648
EXPRESS-AT2             
1 39613U 14010B   24084.84337979 -.00000281  00000+0  00000+0 0  9996
2 39613   0.0249 257.6594 0001112  77.7787 290.8075  1.00274490 36338
AMAZONAS 4A             
1 39616U 14011A   24085.82282238 -.00000248  00000+0  00000+0 0  9999
2 39616   0.0366 156.7706 0002520 213.8062  35.4151  1.00271648 36541
ASTRA 5B                
1 39617U 14011B   24085.85113987  .00000141  00000+0  00000+0 0  9998
2 39617   0.0773 307.2712 0003688  37.2236 169.1878  1.00273991 36714
IRNSS-1B                
1 39635U 14017A   24084.55959233  .00000096  00000+0  00000+0 0  9991
2 39635  29.1496 254.2475 0020299 178.1214   6.6905  1.00276035 36621
LUCH-5V                 
1 39727U 14023A   24086.64903109 -.00000260  00000+0  00000+0 0  9997
2 39727   3.0920  76.4798 0002608 298.5519 137.9162  1.00269806 36213
KAZSAT-3                
1 39728U 14023B   24082.62727646  .00000054  00000+0  00000+0 0  9992
2 39728   0.0101 163.4268 0000143 184.8886 116.5574  1.00268926 34262
EUTELSAT 3B             
1 39773U 14030A   24085.62327640  .00000023  00000+0  00000+0 0  9999
2 39773   0.0641   1.5772 0001605 227.7309 181.7155  1.00271627 35907
ASIASAT 8 (AMOS-7)      
1 40107U 14046A   24085.83674600 -.00000029  00000+0  00000+0 0  9990
2 40107   0.0290 239.9688 0002276 136.2173 104.9396  1.00273276 35345
ASIASAT 6               
1 40141U 14052A   24086.62506648 -.00000356  00000+0  00000+0 0  9992
2 40141   0.0207 226.8954 0001164 166.5840 135.9962  1.00272233 34922
OPTUS 10                
1 40146U 14054A   24085.62197140 -.00000144  00000+0  00000+0 0  9996
2 40146   0.0273 181.0591 0001932 172.4891 209.9149  1.00272369 34967
MEASAT-3B               
1 40147U 14054B   24084.88415955 -.00000241  00000+0  00000+0 0  9999
2 40147   0.0414  34.4828 0003400   5.5758 192.5634  1.00270828 34750
LUCH (OLYMP-K 1)        
1 40258U 14058A   24083.90075758 -.00000144  00000+0  00000+0 0  9993
2 40258   0.0479  83.6321 0002890 262.6506 141.7360  1.00274020 34768
HIMAWARI-8              
1 40267U 14060A   24086.58912044 -.00000269  00000+0  00000+0 0  9999
2 40267   0.0219 179.1601 0000837 210.6232 147.4819  1.00272405 34611
IRNSS-1C                
1 40269U 14061A   24086.64265039 -.00000152  00000+0  00000+0 0  9995
2 40269   4.4643 106.8696 0019225 358.9101  33.1807  1.00271179 34542
INTELSAT 30 (IS-30)     
1 40271U 14062A   24082.12740500 -.00000160  00000+0  00000+0 0  9998
2 40271   0.0136 167.1823 0001283 193.1100 130.6285  1.00268996 34578
ARSAT 1                 
1 40272U 14062B   24086.61883483 -.00000253  00000+0  00000+0 0  9998
2 40272   0.0094 243.1395 0001507 117.1799 335.1881  1.00271814 34465
EXPRESS-AM6             
1 40277U 14064A   24085.98446958  .00000102  00000+0  00000+0 0  9998
2 40277   0.0186 254.6522 0000777 137.5569 199.1147  1.00276299 33420
GSAT-16                 
1 40332U 14078A   24085.98501743  .00000089  00000+0  00000+0 0  9993
2 40332   0.0421 259.0556 0005327 175.6332 158.8903  1.00271424 33952
